#dP2019  8 28  0  0  0.00000000      96 __u+U IGS08 FIT  IAC
## 2068 259200.00000000   900.00000000 58723 0.0000000000000
+  112   C01C02C03C04C05C06C07C08C09C10C11C12C13C14C16C19C20
+        C21C22C23C24C25C27C28C29C30C32C33C34C35C36E01E02E03
+        E04E05E07E08E09E11E12E13E14E15E18E19E21E24E25E26E27
+        E30E31E33E36G01G02G03G04G05G06G07G08G09G10G11G12G13
+        G14G15G16G17G18G19G20G21G22G23G24G25G26G27G28G29G30
+        G31G32J01J02J03J07R01R02R03R05R07R08R09R11R12R13R14
+        R15R16R17R18R19R20R21R22R23R24  0  0  0  0  0  0  0
++        13 13 13 13 12  8  8  8  8  8  7  8  7  7  8  7  7
++         7  7  7  8  8  8  7  8  7  7  8  8  9  8  4  4  4
++         4  4  4  4  5  4  4  4  4  4  4  4  4  4  4  4  4
++         4  4  4  5  3  3  3  3  3  3  3  5  3  3  3  3  3
++         3  3  3  3  3  3  3  3  3  3  3  3  3  3  3  3  3
++         3  3  8  8  9 13  7  5  5  5  5  5  5  5  5  6  5
++         5  6  5  5  6  6  5  5  5  6  0  0  0  0  0  0  0
%c M  cc GPS ccc cccc cccc cccc cccc ccccc ccccc ccccc ccccc
%c cc cc ccc ccc cccc cccc cccc cccc ccccc ccccc ccccc ccccc
%f  1.2500000  1.025000000  0.00000000000  0.000000000000000
%f  0.0000000  0.000000000  0.00000000000  0.000000000000000
%i    0    0    0    0      0      0      0      0         0
%i    0    0    0    0      0      0      0      0         0
/* INFORMATION & ANALYSIS CENTER (IAC)            FINAL DATA
/* S/V CLOCKS ARE ALIGNED TO GPS & GLONASS TIME RESPECTIVELY
/* USING THE BROADCAST EPHEMERIS                            
/* PCV:IGS14_2062 OL/AL:FES2004  NONE     YN ORB:CoN CLK:CoN
*  2019 08 28  7  0  0.00000000
PC01 -32334.194548  27045.766202   -610.033696    215.873095
PC02   4327.540328  41936.462656    927.927304    -56.291568
PC03 -14792.259108  39500.528647    438.263866    -93.451688
PC04 -39621.510121  14387.683574    -75.634029    113.537950
PC05  21944.725103  36010.813219   1099.368496   -153.483702
PC06 -15336.044601  38932.690535   6964.434035    446.715106
PC07  -8488.766364  25736.133948 -32026.359299    -93.587866
PC08 -24183.651425  23224.296903  25426.863226    163.956903
PC09  -7571.619486  41089.023258  -6683.732589    -76.267413
PC10   4370.043311  31552.779249 -27250.090034   -122.567540
PC11  16091.604166   3246.317452  22628.161797    188.571682
PC12  -5701.514638  23570.858823  13787.886135   -236.427739
PC13  -9551.214430  25340.705759  32291.755750   -929.435459
PC14  15621.493647  22056.217938  -6964.840869    507.245833
PC16 -13176.916110  39877.065323   4710.177897   -876.304423
PC19 -18009.285282  -4090.280357  20949.409085    183.577093
PC20 -16342.693317 -20977.460091   8533.172501     -9.455754
PC21   4829.609980  25848.293504   9322.597031    340.741225
PC22  -9260.090814  15398.530724  21346.316346    -37.420655
PC23  18718.168596 -10633.991530  17763.561298   -930.746202
PC24  20374.325816  12461.010996 -14438.856331   -918.740034
PC25  27789.666222    414.951301   2582.190665   -329.368901
PC27   5907.473515 -23703.874411 -13492.669252    179.618083
PC28  18416.250677 -20661.187648   3626.361958    173.569369
PC29 -19891.798029   6321.321913 -18528.663214    110.512647
PC30 -10360.324418 -12659.139220 -22608.427429    182.901546
PC32  -5066.015071 -25835.866539  -9257.776749   -912.406285
PC33  18042.415604   4031.144799 -20892.587916   -341.555568
PC34  10532.359972  12498.786835  22614.291654    -32.051809
PC35 -17756.220115  21228.499518  -3692.634179   -277.738671
PC36 -27784.268759  -1195.303566  -2389.656790   -757.581071
PE01 -27092.147197  -9606.795358  -7080.840568   -677.916016
PE02  27090.102753   9544.407158   7160.731413     76.084818
PE03  16810.218896   6402.825856 -23502.058021   -204.457451
PE04 -14310.208120  15728.067088  20596.767116   -353.633722
PE05   9478.352518  25018.257601 -12655.705928   -453.640844
PE07   3341.480478 -28896.272660  -5511.259680   -254.942624
PE08  14004.179990 -15993.274723 -20600.460733   6300.672307
PE09  -3074.760978  28910.101592   5514.524625   6334.205160
PE11 -11151.941393  20829.833122  17826.479671   5611.040255
PE12 -25126.392511  15658.898425    133.882501   6226.557368
PE13  11197.034140 -20844.626842 -17786.147994    392.062441
PE14  -5764.639239 -24987.358055 -17454.732029   -698.218501
PE15  24920.760343 -15969.306887   -484.109328    897.672256
PE18  -4371.367855  24675.579730   6287.482975   -792.729430
PE19 -16377.601151  -8688.943708  23080.922020     -4.283696
PE21 -19055.299913 -19352.489787  11789.329048   -551.783413
PE24   -158.980252  17866.712646 -23605.564862   5901.024061
PE25  18991.058372  19357.060618 -11842.501635   1696.908024
PE26  -9217.151875 -13659.468871 -24590.857593   4173.262459
PE27    248.632350 -17752.709512  23694.711864    399.137552
PE30  19315.346960  -5750.494056  21677.518453   4593.278617
PE31 -19357.903581   5721.692773 -21642.359125   -467.783945
PE33 -24071.255233   1725.538742 -17139.279171   -469.858143
PE36   9130.918054  13508.268367  24703.491891    669.317059
PG01  -3815.925432 -14482.972365 -22138.886095   -110.350199
PG02 -16909.697141  15321.168033  14090.788248   -292.585350
PG03 -11545.093750 -22119.564746  -9290.045441     -5.369443
PG04  12947.828074 -18788.442610  12818.150053    150.589519
PG05  -6709.260645  14597.462761  20987.217681     -0.949855
PG06 -25871.560522   6073.540349    332.973296    -38.881736
PG07 -19320.410009  -8160.350774  16852.859571    -94.351247
PG08   4184.878052 -25659.180995  -4827.598572     -4.369977
PG09 -10629.307207 -13933.502848  19912.134260    -17.099830
PG10  20718.971188   6862.897584 -15217.999357    -31.064390
PG11   -752.232946 -18709.572502 -19458.470034   -523.163741
PG12   7308.775491  22477.685601 -12489.354047    209.731963
PG13 -13004.389096  22848.071326   3428.259510    -47.404824
PG14  16842.097320 -13168.974211 -15315.377359    -64.326463
PG15  -1122.119615  25785.567363  -5596.850878   -291.069188
PG16   8551.741253 -12497.925067  21577.464072    -68.911440
PG17 -16084.388443   4768.576638 -20155.869865    114.855604
PG18   5691.172443 -16582.975768 -20427.837961     81.311655
PG19 -17245.948390  10748.988720 -17423.884440   -275.016940
PG20  22493.788133  12814.411239  -6432.810591    526.647217
PG21  22215.655348   4413.789808  14514.431000   -128.731435
PG22  -5995.466720 -20969.224003 -15000.028132   -748.788621
PG23  -3028.860822 -23020.755470  12875.830667   -169.931740
PG24   1402.434914  15895.059937 -21365.225234     -1.377387
PG25  17768.108443  19925.757816   -477.175613     -9.617958
PG26  16099.713679  -4585.841680  20641.746025     25.529996
PG27  12223.320287 -22096.252023   7607.271418    -37.496037
PG28 -19427.850543  -8623.319165 -15257.634642    763.715171
PG29   7152.399053  16814.094833  19232.615320    113.252017
PG30 -25526.874355  -1062.695308   7659.181305    -28.731904
PG31  25877.184869  -6623.113878   2244.445337     14.320010
PG32  16383.947205  -4798.848559 -20250.894217     35.788115
PJ01 -24412.291566  25091.171663  28561.655147   -254.313934
PJ02 -29935.139253  14410.596172 -21528.127151     -3.059948
PJ03 -24335.034570  32113.944878  -7716.376036     -1.102192
PJ07 -25375.095239  33666.008907     53.003214     -0.065781
PR01 -12117.210118 -16148.534498  15602.137548     48.834734
PR02  -9912.242990   5160.683332  22971.054166    385.367684
PR03  -2007.144687  20814.553293  14680.047451      0.687465
PR05  11997.361624  14198.860408 -17468.621063     34.655246
PR07   1708.419839 -21093.125136 -14179.494790    -25.747009
PR08  -7051.978918 -24433.027368   1981.497941     15.940409
PR09  20186.102987  -2030.399765  15432.296383     87.658617
PR11 -12396.059159 -12765.240411  18322.259993    -77.468995
PR12 -23581.731547  -8782.064384   4165.847063     56.591514
PR13 -21596.631413    716.260417 -13574.562537    -27.664593
PR14  -7020.679710   9260.161702 -22691.094998     42.397118
PR15  11551.254450  12647.377585 -18872.484257    103.710754
PR16  23859.068927   8327.056857  -3897.478301      5.422533
PR17 -15302.238857  19127.980411   7038.557957    255.527408
PR18  -2715.513281  15276.575791  20270.401328      5.411264
PR19  11213.547874   3495.121731  22638.265743    -50.735426
PR20  19949.322955 -11647.674700  10777.112585   -388.753588
PR21  14965.058187 -19175.399502  -7743.250530    -68.778533
PR22    190.081449 -13553.108799 -21582.535593    -35.088153
PR23 -14989.911938   1427.057260 -20600.496889    250.156786
PR24 -19875.979615  13261.550384  -8971.327419   -184.125810
EOF
